[{"OBJECT_NAME":"SHIYAN-1 (SY-1)","OBJECT_ID":"2004-012A","EPOCH":"2026-03-09T17:40:34.066560","MEAN_MOTION":15.31043463,"ECCENTRICITY":0.00058726,"INCLINATION":97.8764,"RA_OF_ASC_NODE":140.5238,"ARG_OF_PERICENTER":23.6952,"MEAN_ANOMALY":336.4557,"EPHEMERIS_TYPE":0,"CLASSIFICATION_TYPE":"U","NORAD_CAT_ID":28220,"ELEMENT_SET_NO":999,"REV_AT_EPOCH":19586,"BSTAR":0.00054854449,"MEAN_MOTION_DOT":0.00016393,"MEAN_MOTION_DDOT":0},{"OBJECT_NAME":"STARLINK-35430","OBJECT_ID":"2025-232R","EPOCH":"2026-03-09T22:22:58.830240","MEAN_MOTION":15.30205842,"ECCENTRICITY":0.00016231,"INCLINATION":53.1586,"RA_OF_ASC_NODE":102.7167,"ARG_OF_PERICENTER":87.7013,"MEAN_ANOMALY":272.4173,"EPHEMERIS_TYPE":0,"CLASSIFICATION_TYPE":"U","NORAD_CAT_ID":66020,"ELEMENT_SET_NO":999,"REV_AT_EPOCH":2345,"BSTAR":0.00073811173,"MEAN_MOTION_DOT":0.00021569,"MEAN_MOTION_DDOT":0}]
